STARLINK-2573           
1 48394U 21038AT  24226.85702060  .00020985  00000+0  14250-2 0  9993
2 48394  53.0538  33.1642 0001190  94.8941 265.2184 15.06360908182185
STARLINK-2574           
1 48395U 21038AU  24226.83496594  .00022088  00000+0  14991-2 0  9992
2 48395  53.0541  33.8933 0001404 115.0525 245.0609 15.06350792182179
STARLINK-2575           
1 48396U 21038AV  24227.18507713  .00028615  00000+0  19331-2 0  9993
2 48396  53.0542  31.6883 0001619  76.5823 283.5346 15.06381690181604
STARLINK-2590           
1 48397U 21038AW  24227.18138701  .00038035  00000+0  25597-2 0  9999
2 48397  53.0557  31.7027 0001298 100.3113 259.8023 15.06384087181604
STARLINK-2588           
1 48398U 21038AX  24227.17766403 -.00011589  00000+0 -76072-3 0  9997
2 48398  53.0534  31.7218 0002224  87.1925 272.9318 15.06382252181600
STARLINK-2587           
1 48399U 21038AY  24226.84225460  .00020885  00000+0  14186-2 0  9998
2 48399  53.0522  33.2312 0001328  55.7096 304.4019 15.06353645182170
STARLINK-2576           
1 48400U 21038AZ  24227.17032864  .00004812  00000+0  34192-3 0  9994
2 48400  53.0553  31.7606 0001704 103.1023 257.0156 15.06381029181601
STARLINK-2571           
1 48401U 21038BA  24226.87544845  .00019215  00000+0  13066-2 0  9997
2 48401  53.0551  33.0910 0001447 111.0190 249.0954 15.06363422180962
STARLINK-2560           
1 48402U 21038BB  24227.33335648  .00482941  00000+0  17727-2 0  9997
2 48402  53.0455 321.0880 0011480 345.6015 186.1553 15.86460018182607
STARLINK-2561           
1 48403U 21038BC  24226.76451945  .00036868  00000+0  24608-2 0  9992
2 48403  53.0562  33.5733 0001135  87.3835 272.7284 15.06704686180958
STARLINK-2593           
1 48404U 21038BD  24226.89387427  .00022191  00000+0  15055-2 0  9990
2 48404  53.0549  33.0007 0001019 107.7955 252.3145 15.06361450180974
STARLINK-2570           
1 48405U 21038BE  24226.75748484  .00023251  00000+0  15767-2 0  9998
2 48405  53.0553  33.6131 0001800 104.0578 256.0611 15.06352384180956
STARLINK-2568           
1 48406U 21038BF  24226.75380118  .00009292  00000+0  64272-3 0  9990
2 48406  53.0559  33.6256 0001020 110.2209 249.8889 15.06350373180958
STARLINK-2595           
1 48407U 21038BG  24227.18313748  .00013697  00000+0  91334-3 0  9997
2 48407  53.0577  30.6817 0001353  77.6156 282.4984 15.07335672181614
STARLINK-2592           
1 48408U 21038BH  24226.81278418  .00013996  00000+0  95763-3 0  9993
2 48408  53.0551  33.3640 0001418 110.4113 249.7028 15.06360357180950
STARLINK-2596           
1 48409U 21038BJ  24226.91667824  .01068248  00000+0  31343-2 0  9992
2 48409  53.0506  19.5718 0002026 305.8692  73.4092 15.89695417  6028
STARLINK-2563           
1 48410U 21038BK  24227.03992720  .00000435  00000+0  48162-4 0  9996
2 48410  53.0526 347.3422 0003590  71.2706 288.8672 15.06375185182211
STARLINK-2505           
1 48411U 21038BL  24227.05697720 -.00019958  00000+0 -13270-2 0  9993
2 48411  53.0486 342.2669 0003100  74.7223 285.4108 15.06331896182288
STARLINK-2581           
1 48412U 21038BM  24227.27449390  .00054600  00000+0  36565-2 0  9999
2 48412  53.0548 341.7227 0001936 101.2964 258.8242 15.06396025182317
YAOGAN-30 09A           
1 48423U 21039A   24226.83667817  .00010084  00000+0  88485-3 0  9996
2 48423  34.9970 152.1767 0005893 318.6062  41.4197 14.95908660178533
YAOGAN-30 09B           
1 48424U 21039B   24226.88184242  .00010084  00000+0  88510-3 0  9997
2 48424  34.9951 151.4422 0003897  63.1129 296.9975 14.95904011178538
YAOGAN-30 09C           
1 48425U 21039C   24226.85937004  .00010113  00000+0  88816-3 0  9999
2 48425  34.9948 151.2545 0003686 334.8092  25.2434 14.95883214178547
TIANQI-12               
1 48426U 21039D   24226.85086974  .00013764  00000+0  10922-2 0  9998
2 48426  35.0024 129.4321 0003098 136.2261 223.8692 14.99749693178754
STARLINK-2461           
1 48428U 21040A   24226.75148217 -.00003547  00000+0 -21949-3 0  9992
2 48428  53.0542 238.6352 0001443  87.1570 272.9584 15.06373442180209
STARLINK-2749           
1 48429U 21040B   24227.18552672 -.00000279  00000+0  20269-6 0  9990
2 48429  53.0560 206.7048 0001786 110.6555 249.4626 15.06374034181961
STARLINK-2700           
1 48431U 21040D   24226.63397323 -.00001967  00000+0 -11322-3 0  9995
2 48431  53.0519 204.1626 0001769  68.2965 291.8212 15.06381109180676
STARLINK-2680           
1 48432U 21040E   24227.14595878  .00012122  00000+0  83160-3 0  9990
2 48432  53.0528 197.2602 0001736  98.2418 261.8768 15.06385157181427
STARLINK-2699           
1 48433U 21040F   24227.22471080  .00001346  00000+0  10928-3 0  9996
2 48433  53.0528 201.7917 0001552  92.9312 267.1854 15.06375147181364
STARLINK-2692           
1 48434U 21040G   24227.18926392 -.00000816  00000+0 -35939-4 0  9996
2 48434  53.0528 207.1810 0001438  93.8590 266.2563 15.06368738181138
STARLINK-2633           
1 48435U 21040H   24227.26199837  .00003531  00000+0  25601-3 0  9991
2 48435  53.0537 216.3502 0001645  75.5016 284.6156 15.06376660181831
STARLINK-2639           
1 48436U 21040J   24227.18504754 -.00002765  00000+0 -16686-3 0  9994
2 48436  53.0540 231.6950 0001485 102.9608 257.1547 15.06382793180783
STARLINK-2642           
1 48437U 21040K   24227.30208337  .00001072  00000+0  90907-4 0  9994
2 48437  53.0517 241.1647 0001654  96.0272 264.0906 15.06382360181490
STARLINK-2640           
1 48438U 21040L   24227.20720327 -.00002282  00000+0 -13436-3 0  9999
2 48438  53.0536 231.8613 0001976  90.8493 269.2722 15.06384208181615
STARLINK-2583           
1 48439U 21040M   24227.17767688  .00009691  00000+0  66943-3 0  9997
2 48439  53.0534 231.7245 0001450  75.3518 284.7631 15.06353357181619
STARLINK-2682           
1 48440U 21040N   24227.17399456  .00003033  00000+0  22258-3 0  9998
2 48440  53.0547 231.7400 0001508  98.0172 262.0988 15.06378744180788
STARLINK-2702           
1 48441U 21040P   24227.30300432 -.00005332  00000+0 -33959-3 0  9996
2 48441  53.0534 231.1619 0001254  85.0561 275.0571 15.06373194181638
STARLINK-2644           
1 48442U 21040Q   24227.16662485  .00003170  00000+0  23167-3 0  9996
2 48442  53.0525 231.7749 0001546  92.7238 267.3928 15.06393180181614
STARLINK-2663           
1 48443U 21040R   24227.16293065 -.00002403  00000+0 -14256-3 0  9990
2 48443  53.0515 231.7874 0001215  89.3503 270.7625 15.06373523181614
STARLINK-2645           
1 48444U 21040S   24227.22558617 -.00004659  00000+0 -29420-3 0  9999
2 48444  53.0535 231.5094 0001249  72.4624 287.6501 15.06383659181625
STARLINK-2634           
1 48445U 21040T   24227.22190263 -.00003233  00000+0 -19846-3 0  9997
2 48445  53.0541 231.5236 0001393 106.1407 253.9736 15.06366716181626
STARLINK-2247           
1 48446U 21040U   24226.91667824  .01455285  00000+0  40259-1 0  9992
2 48446  53.0489 231.9047 0001362  93.1912 221.2699 15.33308258  5891
STARLINK-2632           
1 48448U 21040W   24226.25100914  .14207876  11847-4  55371-2 0  9996
2 48448  53.0347 161.9234 0003606 160.2361 357.7047 16.23186927182494
STARLINK-2655           
1 48449U 21040X   24226.74642645  .00001749  00000+0  13630-3 0  9996
2 48449  53.0535 233.6588 0001601  83.6863 276.4308 15.06400011180275
STARLINK-2660           
1 48450U 21040Y   24227.20991245  .00002027  00000+0  15510-3 0  9992
2 48450  53.0529 231.6051 0001994  97.3822 262.7394 15.06370233181620
STARLINK-2652           
1 48451U 21040Z   24227.27928674  .01081250  60831-3  19136-2 0  9991
2 48451  53.0377 158.4390 0006002 134.2610 225.8914 16.01406661182647
STARLINK-2703           
1 48452U 21040AA  24227.20348194 -.00000081  00000+0  13450-4 0  9994
2 48452  53.0520 231.5760 0002058  98.4515 261.6707 15.06386556181623
STARLINK-2620           
1 48453U 21040AB  24227.19979412 -.00004389  00000+0 -27614-3 0  9998
2 48453  53.0536 231.6220 0001682  86.3230 273.7952 15.06372422181628
STARLINK-2654           
1 48454U 21040AC  24226.73169427 -.00006092  00000+0 -39081-3 0  9999
2 48454  53.0539 233.7260 0001894  97.6401 262.4803 15.06364546180277
STARLINK-2497           
1 48455U 21040AD  24227.19242233 -.00004637  00000+0 -29288-3 0  9999
2 48455  53.0527 231.6555 0001194  98.8229 261.2896 15.06365695180942
STARLINK-2698           
1 48458U 21040AG  24227.26753060  .00002891  00000+0  21301-3 0  9991
2 48458  53.0536 236.4110 0001637 114.1583 245.9577 15.06375347180829
STARLINK-2579           
1 48459U 21040AH  24227.19384990  .00005774  00000+0  40633-3 0  9998
2 48459  53.0537 237.0090 0001470  89.8119 270.3038 15.06385376180875
STARLINK-2582           
1 48460U 21040AJ  24227.27855824 -.00009503  00000+0 -61968-3 0  9998
2 48460  53.0520 236.2711 0001586  98.6230 261.4939 15.06414364180781
STARLINK-2693           
1 48461U 21040AK  24227.29331736  .00014509  00000+0  99210-3 0  9993
2 48461  53.0533 236.2046 0001558  95.9653 264.1514 15.06356645181568
STARLINK-2683           
1 48462U 21040AL  24227.20996928  .00001109  00000+0  93410-4 0  9994
2 48462  53.0539 241.8580 0001330  88.2195 271.8946 15.06372934180803
STARLINK-2689           
1 48463U 21040AM  24227.21635488 -.00006732  00000+0 -43383-3 0  9999
2 48463  53.0539 241.5487 0002024  78.8909 281.2308 15.06368584181484
STARLINK-2686           
1 48464U 21040AN  24227.19518753 -.00002369  00000+0 -14026-3 0  9996
2 48464  53.0523 241.6440 0001541  87.9208 272.1958 15.06387369181486
STARLINK-2681           
1 48465U 21040AP  24226.74180439 -.00013038  00000+0 -85899-3 0  9994
2 48465  53.0532 243.6812 0001405  89.9256 270.1894 15.06357275180148
STARLINK-2687           
1 48466U 21040AQ  24227.19150301  .00008347  00000+0  57864-3 0  9996
2 48466  53.0536 241.6625 0001333 106.4301 253.6835 15.06395044181484
STARLINK-2659           
1 48467U 21040AR  24226.75288381  .00013062  00000+0  89425-3 0  9996
2 48467  53.0526 243.6281 0001387  97.8888 262.2259 15.06396574180143
